[{"OBJECT_NAME":"STARLINK-2674","OBJECT_ID":"2021-038B","EPOCH":"2026-03-09T23:26:52.086336","MEAN_MOTION":15.30192431,"ECCENTRICITY":0.00014577,"INCLINATION":53.1599,"RA_OF_ASC_NODE":356.8683,"ARG_OF_PERICENTER":96.0218,"MEAN_ANOMALY":264.0949,"EPHEMERIS_TYPE":0,"CLASSIFICATION_TYPE":"U","NORAD_CAT_ID":48354,"ELEMENT_SET_NO":999,"REV_AT_EPOCH":26712,"BSTAR":2.246718e-5,"MEAN_MOTION_DOT":3.06e-6,"MEAN_MOTION_DDOT":0},{"OBJECT_NAME":"FENGYUN 1C DEB","OBJECT_ID":"1999-025CCU","EPOCH":"2026-03-09T04:16:51.250080","MEAN_MOTION":14.7380712,"ECCENTRICITY":0.02770831,"INCLINATION":98.1363,"RA_OF_ASC_NODE":145.1449,"ARG_OF_PERICENTER":173.2574,"MEAN_ANOMALY":217.8544,"EPHEMERIS_TYPE":0,"CLASSIFICATION_TYPE":"U","NORAD_CAT_ID":31686,"ELEMENT_SET_NO":999,"REV_AT_EPOCH":99091,"BSTAR":0.001175879,"MEAN_MOTION_DOT":0.00014291,"MEAN_MOTION_DDOT":0}]
